HORS 3 (RS81S)          
1 61753U 24199U   26061.79479440  .00035931  00000+0  69120-3 0  9997
2 61753  97.3143 295.9825 0006278 323.6639  36.4184 15.47810941121062
HORS 4 (RS82S)          
1 61754U 24199V   26061.81034462  .00043942  00000+0  76807-3 0  9993
2 61754  97.3121 296.6687 0006005 320.5052  39.5762 15.50513365121112
HORIZON (RS59S)         
1 61757U 24199Y   26061.79543403  .00130473  00000+0  11589-2 0  9994
2 61757  97.3091 300.3013 0003301 297.3057  62.7868 15.68122510121346
ARCTICSAT 1 (RS74S)     
1 61762U 24199AD  26061.78972239  .00097847  00000+0  10231-2 0  9992
2 61762  97.3110 299.8603 0003686 293.5937  66.4935 15.64137554121315
SIT-2086                
1 61764U 24199AF  26061.80280556  .00027860  00000+0  54769-3 0  9994
2 61764  97.3139 296.7288 0006356 302.3367  57.7267 15.47232213117951
RUZAEVKA 390 (RS44S)    
1 61766U 24199AH  26061.62672404  .00844467  34052-3  16494-2 0  9993
2 61766  97.2881 303.4007 0001705 153.2138 206.9229 16.00278810118391
HYPERVIEW 1G (RS66S)    
1 61772U 24199AP  26061.81755778  .00072586  00000+0  10030-2 0  9994
2 61772  97.3105 297.7157 0007205 317.0332  43.0360 15.56885987118032
ALTAIR (RS65S)          
1 61779U 24199AW  26061.79117476  .00014861  00000+0  44122-3 0  9997
2 61779  97.3196 291.9023 0012740 335.1886  24.8743 15.34809569120787
ASRTU-1 (AO-123)        
1 61781U 24199AY  26061.76663620  .00011374  00000+0  34822-3 0  9996
2 61781  97.3170 291.4172 0013476 337.1140  22.9500 15.33892773117609
TUSUR GO (RS78S)        
1 61782U 24199AZ  26061.81043550  .00148307  00000+0  12951-2 0  9992
2 61782  97.3045 299.3268 0004405 316.1914  43.8998 15.68481704118141
SAMSAT-IONOSPHERE (RS7*)
1 61784U 24199BB  26061.82398508  .00041362  00000+0  76497-3 0  9990
2 61784  97.3131 295.7946 0009273 323.3723  36.6893 15.48888512121052
RTU MIREA 1 (RS51S)     
1 61785U 24199BC  26061.83022574  .00048497  00000+0  83998-3 0  9999
2 61785  97.3130 296.2258 0008988 319.2335  40.8243 15.50725565117938
TEVEL2-4                
1 63213U 25052D   26061.69961235  .00022254  00000+0  75407-3 0  9995
2 63213  97.4040 318.1473 0004459 108.3721 251.8005 15.30565789 53808
TEVEL2-5                
1 63214U 25052E   26061.64464484  .00022308  00000+0  75865-3 0  9993
2 63214  97.4038 318.0667 0004444 108.2519 251.9206 15.30447348 53790
TEVEL2-6                
1 63215U 25052F   26061.65428043  .00022713  00000+0  77334-3 0  9999
2 63215  97.4041 318.0620 0004521 109.9512 250.2216 15.30405404 53791
TEVEL2-1                
1 63217U 25052H   26061.65061916  .00021697  00000+0  74835-3 0  9996
2 63217  97.4016 317.7976 0004281 118.7771 241.3900 15.29995139 53780
