[{"OBJECT_NAME":"HORS 3 (RS81S)","OBJECT_ID":"2024-199U","EPOCH":"2026-03-02T19:04:30.236160","MEAN_MOTION":15.47810941,"ECCENTRICITY":0.0006278,"INCLINATION":97.3143,"RA_OF_ASC_NODE":295.9825,"ARG_OF_PERICENTER":323.6639,"MEAN_ANOMALY":36.4184,"EPHEMERIS_TYPE":0,"CLASSIFICATION_TYPE":"U","NORAD_CAT_ID":61753,"ELEMENT_SET_NO":999,"REV_AT_EPOCH":12106,"BSTAR":0.0006912,"MEAN_MOTION_DOT":0.00035931,"MEAN_MOTION_DDOT":0},{"OBJECT_NAME":"HORS 4 (RS82S)","OBJECT_ID":"2024-199V","EPOCH":"2026-03-02T19:26:53.775168","MEAN_MOTION":15.50513365,"ECCENTRICITY":0.0006005,"INCLINATION":97.3121,"RA_OF_ASC_NODE":296.6687,"ARG_OF_PERICENTER":320.5052,"MEAN_ANOMALY":39.5762,"EPHEMERIS_TYPE":0,"CLASSIFICATION_TYPE":"U","NORAD_CAT_ID":61754,"ELEMENT_SET_NO":999,"REV_AT_EPOCH":12111,"BSTAR":0.00076807,"MEAN_MOTION_DOT":0.00043942,"MEAN_MOTION_DDOT":0},{"OBJECT_NAME":"HORIZON (RS59S)","OBJECT_ID":"2024-199Y","EPOCH":"2026-03-02T19:05:25.500192","MEAN_MOTION":15.6812251,"ECCENTRICITY":0.0003301,"INCLINATION":97.3091,"RA_OF_ASC_NODE":300.3013,"ARG_OF_PERICENTER":297.3057,"MEAN_ANOMALY":62.7868,"EPHEMERIS_TYPE":0,"CLASSIFICATION_TYPE":"U","NORAD_CAT_ID":61757,"ELEMENT_SET_NO":999,"REV_AT_EPOCH":12134,"BSTAR":0.0011589,"MEAN_MOTION_DOT":0.00130473,"MEAN_MOTION_DDOT":0},{"OBJECT_NAME":"ARCTICSAT 1 (RS74S)","OBJECT_ID":"2024-199AD","EPOCH":"2026-03-02T18:57:12.014496","MEAN_MOTION":15.64137554,"ECCENTRICITY":0.0003686,"INCLINATION":97.311,"RA_OF_ASC_NODE":299.8603,"ARG_OF_PERICENTER":293.5937,"MEAN_ANOMALY":66.4935,"EPHEMERIS_TYPE":0,"CLASSIFICATION_TYPE":"U","NORAD_CAT_ID":61762,"ELEMENT_SET_NO":999,"REV_AT_EPOCH":12131,"BSTAR":0.0010231,"MEAN_MOTION_DOT":0.00097847,"MEAN_MOTION_DDOT":0},{"OBJECT_NAME":"SIT-2086","OBJECT_ID":"2024-199AF","EPOCH":"2026-03-02T19:16:02.400384","MEAN_MOTION":15.47232213,"ECCENTRICITY":0.0006356,"INCLINATION":97.3139,"RA_OF_ASC_NODE":296.7288,"ARG_OF_PERICENTER":302.3367,"MEAN_ANOMALY":57.7267,"EPHEMERIS_TYPE":0,"CLASSIFICATION_TYPE":"U","NORAD_CAT_ID":61764,"ELEMENT_SET_NO":999,"REV_AT_EPOCH":11795,"BSTAR":0.00054769,"MEAN_MOTION_DOT":0.0002786,"MEAN_MOTION_DDOT":0},{"OBJECT_NAME":"RUZAEVKA 390 (RS44S)","OBJECT_ID":"2024-199AH","EPOCH":"2026-03-02T15:02:28.957056","MEAN_MOTION":16.0027881,"ECCENTRICITY":0.0001705,"INCLINATION":97.2881,"RA_OF_ASC_NODE":303.4007,"ARG_OF_PERICENTER":153.2138,"MEAN_ANOMALY":206.9229,"EPHEMERIS_TYPE":0,"CLASSIFICATION_TYPE":"U","NORAD_CAT_ID":61766,"ELEMENT_SET_NO":999,"REV_AT_EPOCH":11839,"BSTAR":0.0016494,"MEAN_MOTION_DOT":0.00844467,"MEAN_MOTION_DDOT":0.00034052},{"OBJECT_NAME":"HYPERVIEW 1G (RS66S)","OBJECT_ID":"2024-199AP","EPOCH":"2026-03-02T19:37:16.992192","MEAN_MOTION":15.56885987,"ECCENTRICITY":0.0007205,"INCLINATION":97.3105,"RA_OF_ASC_NODE":297.7157,"ARG_OF_PERICENTER":317.0332,"MEAN_ANOMALY":43.036,"EPHEMERIS_TYPE":0,"CLASSIFICATION_TYPE":"U","NORAD_CAT_ID":61772,"ELEMENT_SET_NO":999,"REV_AT_EPOCH":11803,"BSTAR":0.001003,"MEAN_MOTION_DOT":0.00072586,"MEAN_MOTION_DDOT":0},{"OBJECT_NAME":"ALTAIR (RS65S)","OBJECT_ID":"2024-199AW","EPOCH":"2026-03-02T18:59:17.499264","MEAN_MOTION":15.34809569,"ECCENTRICITY":0.001274,"INCLINATION":97.3196,"RA_OF_ASC_NODE":291.9023,"ARG_OF_PERICENTER":335.1886,"MEAN_ANOMALY":24.8743,"EPHEMERIS_TYPE":0,"CLASSIFICATION_TYPE":"U","NORAD_CAT_ID":61779,"ELEMENT_SET_NO":999,"REV_AT_EPOCH":12078,"BSTAR":0.00044122,"MEAN_MOTION_DOT":0.00014861,"MEAN_MOTION_DDOT":0},{"OBJECT_NAME":"ASRTU-1 (AO-123)","OBJECT_ID":"2024-199AY","EPOCH":"2026-03-02T18:23:57.367680","MEAN_MOTION":15.33892773,"ECCENTRICITY":0.0013476,"INCLINATION":97.317,"RA_OF_ASC_NODE":291.4172,"ARG_OF_PERICENTER":337.114,"MEAN_ANOMALY":22.95,"EPHEMERIS_TYPE":0,"CLASSIFICATION_TYPE":"U","NORAD_CAT_ID":61781,"ELEMENT_SET_NO":999,"REV_AT_EPOCH":11760,"BSTAR":0.00034822,"MEAN_MOTION_DOT":0.00011374,"MEAN_MOTION_DDOT":0},{"OBJECT_NAME":"TUSUR GO (RS78S)","OBJECT_ID":"2024-199AZ","EPOCH":"2026-03-02T19:27:01.627200","MEAN_MOTION":15.68481704,"ECCENTRICITY":0.0004405,"INCLINATION":97.3045,"RA_OF_ASC_NODE":299.3268,"ARG_OF_PERICENTER":316.1914,"MEAN_ANOMALY":43.8998,"EPHEMERIS_TYPE":0,"CLASSIFICATION_TYPE":"U","NORAD_CAT_ID":61782,"ELEMENT_SET_NO":999,"REV_AT_EPOCH":11814,"BSTAR":0.0012951,"MEAN_MOTION_DOT":0.00148307,"MEAN_MOTION_DDOT":0},{"OBJECT_NAME":"SAMSAT-IONOSPHERE (RS75S)","OBJECT_ID":"2024-199BB","EPOCH":"2026-03-02T19:46:32.310912","MEAN_MOTION":15.48888512,"ECCENTRICITY":0.0009273,"INCLINATION":97.3131,"RA_OF_ASC_NODE":295.7946,"ARG_OF_PERICENTER":323.3723,"MEAN_ANOMALY":36.6893,"EPHEMERIS_TYPE":0,"CLASSIFICATION_TYPE":"U","NORAD_CAT_ID":61784,"ELEMENT_SET_NO":999,"REV_AT_EPOCH":12105,"BSTAR":0.00076497,"MEAN_MOTION_DOT":0.00041362,"MEAN_MOTION_DDOT":0},{"OBJECT_NAME":"RTU MIREA 1 (RS51S)","OBJECT_ID":"2024-199BC","EPOCH":"2026-03-02T19:55:31.503936","MEAN_MOTION":15.50725565,"ECCENTRICITY":0.0008988,"INCLINATION":97.313,"RA_OF_ASC_NODE":296.2258,"ARG_OF_PERICENTER":319.2335,"MEAN_ANOMALY":40.8243,"EPHEMERIS_TYPE":0,"CLASSIFICATION_TYPE":"U","NORAD_CAT_ID":61785,"ELEMENT_SET_NO":999,"REV_AT_EPOCH":11793,"BSTAR":0.00083998,"MEAN_MOTION_DOT":0.00048497,"MEAN_MOTION_DDOT":0},{"OBJECT_NAME":"TEVEL2-4","OBJECT_ID":"2025-052D","EPOCH":"2026-03-02T16:47:26.507040","MEAN_MOTION":15.30565789,"ECCENTRICITY":0.0004459,"INCLINATION":97.404,"RA_OF_ASC_NODE":318.1473,"ARG_OF_PERICENTER":108.3721,"MEAN_ANOMALY":251.8005,"EPHEMERIS_TYPE":0,"CLASSIFICATION_TYPE":"U","NORAD_CAT_ID":63213,"ELEMENT_SET_NO":999,"REV_AT_EPOCH":5380,"BSTAR":0.00075407,"MEAN_MOTION_DOT":0.00022254,"MEAN_MOTION_DDOT":0},{"OBJECT_NAME":"TEVEL2-5","OBJECT_ID":"2025-052E","EPOCH":"2026-03-02T15:28:17.314176","MEAN_MOTION":15.30447348,"ECCENTRICITY":0.0004444,"INCLINATION":97.4038,"RA_OF_ASC_NODE":318.0667,"ARG_OF_PERICENTER":108.2519,"MEAN_ANOMALY":251.9206,"EPHEMERIS_TYPE":0,"CLASSIFICATION_TYPE":"U","NORAD_CAT_ID":63214,"ELEMENT_SET_NO":999,"REV_AT_EPOCH":5379,"BSTAR":0.00075865,"MEAN_MOTION_DOT":0.00022308,"MEAN_MOTION_DDOT":0},{"OBJECT_NAME":"TEVEL2-6","OBJECT_ID":"2025-052F","EPOCH":"2026-03-02T15:42:09.829152","MEAN_MOTION":15.30405404,"ECCENTRICITY":0.0004521,"INCLINATION":97.4041,"RA_OF_ASC_NODE":318.062,"ARG_OF_PERICENTER":109.9512,"MEAN_ANOMALY":250.2216,"EPHEMERIS_TYPE":0,"CLASSIFICATION_TYPE":"U","NORAD_CAT_ID":63215,"ELEMENT_SET_NO":999,"REV_AT_EPOCH":5379,"BSTAR":0.00077334,"MEAN_MOTION_DOT":0.00022713,"MEAN_MOTION_DDOT":0},{"OBJECT_NAME":"TEVEL2-1","OBJECT_ID":"2025-052H","EPOCH":"2026-03-02T15:36:53.495424","MEAN_MOTION":15.29995139,"ECCENTRICITY":0.0004281,"INCLINATION":97.4016,"RA_OF_ASC_NODE":317.7976,"ARG_OF_PERICENTER":118.7771,"MEAN_ANOMALY":241.39,"EPHEMERIS_TYPE":0,"CLASSIFICATION_TYPE":"U","NORAD_CAT_ID":63217,"ELEMENT_SET_NO":999,"REV_AT_EPOCH":5378,"BSTAR":0.00074835,"MEAN_MOTION_DOT":0.00021697,"MEAN_MOTION_DDOT":0}]
